OBJECT_NAME,OBJECT_ID,EPOCH,MEAN_MOTION,ECCENTRICITY,INCLINATION,RA_OF_ASC_NODE,ARG_OF_PERICENTER,MEAN_ANOMALY,EPHEMERIS_TYPE,CLASSIFICATION_TYPE,NORAD_CAT_ID,ELEMENT_SET_NO,REV_AT_EPOCH,BSTAR,MEAN_MOTION_DOT,MEAN_MOTION_DDOT
ASNARO,2014-070A,2024-08-13T20:01:56.161920,15.19618389,.0000697,97.4086,307.3186,17.0260,343.0998,0,U,40298,999,54190,.14074E-2,.30011E-3,0
HODOYOSHI-1,2014-070B,2024-08-13T19:58:37.062624,15.52218863,.0007815,97.1352,286.3861,178.7271,181.4004,0,U,40299,999,54403,.89735E-3,.54667E-3,0
YAOGAN-23,2014-071A,2024-08-13T19:42:00.227808,15.57070186,.0004559,97.6900,216.0056,125.4302,234.7378,0,U,40305,999,54130,.12014E-2,.87667E-3,0
YAOGAN-24,2014-072A,2024-08-13T19:24:04.750848,14.76147428,.0011886,98.0613,351.2092,253.6683,106.3220,0,U,40310,999,52454,.60322E-3,.4121E-4,0
COSMOS 2501 [GLONASS-K],2014-075A,2024-08-11T12:08:16.619424,2.13101532,.0020992,63.6230,213.7523,211.5290,148.3545,0,U,40315,999,7547,0,.96E-6,0
DIRECTV 14,2014-078B,2024-08-15T14:35:40.946784,1.00271311,.0000726,0.0122,333.4123,76.3446,34.4242,0,U,40333,999,3533,0,-.119E-5,0
CBERS 4,2014-079A,2024-08-13T19:58:58.015488,14.35495602,.0001501,98.3966,293.6511,122.1197,238.0135,0,U,40336,999,50749,.2873E-3,.784E-5,0
YAOGAN-25 01A,2014-080A,2024-08-13T19:48:39.605760,13.45292491,.0306734,63.3907,242.1103,6.0828,354.3789,0,U,40338,999,47520,.24395E-3,.101E-5,0
YAOGAN-25 01B,2014-080B,2024-08-13T19:44:48.953184,13.45310410,.0307002,63.3915,242.2558,5.9507,354.5034,0,U,40339,999,47517,.23697E-3,.96E-6,0
YAOGAN-25 01C,2014-080C,2024-08-13T19:43:41.365920,13.45313556,.0306675,63.3897,242.6388,6.5560,353.9338,0,U,40340,999,47529,.24317E-3,.101E-5,0
YAMAL 401,2014-082A,2024-08-13T21:00:01.931904,1.00273528,.0000785,0.0115,136.8271,156.2400,74.6622,0,U,40345,999,3517,0,-.219E-5,0
O3B FM9,2014-083D,2024-08-13T23:51:28.507680,5.00116047,.0002595,0.0589,358.8312,142.6843,218.5035,0,U,40351,999,17644,0,-.15E-6,0
COSMOS 2502,2014-086A,2024-08-13T21:21:19.528704,13.97651223,.0005527,67.1501,203.9187,288.7490,71.2995,0,U,40358,999,48999,.24367E-3,.269E-5,0
RESURS-P 2,2014-087A,2024-08-13T20:55:44.043456,15.63742098,.0006019,97.1487,313.9563,87.3756,272.8192,0,U,40360,999,54006,.53E-3,.49594E-3,0
YAOGAN-26,2014-088A,2024-08-13T20:49:39.004320,15.23754054,.0003545,97.0831,244.6867,218.3836,141.7150,0,U,40362,999,53608,.11376E-2,.27366E-3,0
ASTRA 2G,2014-089A,2024-08-14T04:48:42.587424,1.00276571,.0003561,0.0609,310.2730,146.9244,326.3041,0,U,40364,999,3528,0,.16E-5,0
FENGYUN 2G,2014-090A,2024-08-13T20:25:24.945024,1.00267530,.0003026,3.9327,80.8666,136.9843,150.7839,0,U,40367,999,3525,0,-.293E-5,0
MUOS-3,2015-002A,2024-08-13T19:47:35.356128,1.00271072,.0058869,3.3264,36.3239,176.2415,31.5647,0,U,40374,999,3484,0,-.119E-5,0
INMARSAT 5-F2,2015-005A,2024-08-13T23:13:49.823328,1.00271687,.0000152,0.0176,100.6926,158.9532,356.6872,0,U,40384,999,3425,0,-.275E-5,0
EUTELSAT 115 WEST B,2015-010B,2024-08-15T14:14:40.892640,1.00272942,.0000368,0.0105,230.4535,34.1314,158.6485,0,U,40425,999,3470,0,-.19E-6,0
MMS 1,2015-011A,2024-08-15T14:00:01.000224,0.28443537,.9058422,51.2847,7.3933,149.7749,81.0049,0,U,40482,999,1554,0,-.2415E-4,0
MMS 2,2015-011B,2024-08-15T14:00:01.000224,0.28439937,.905852,51.2857,7.3923,149.7755,80.2943,0,U,40483,999,1552,0,-.2415E-4,0
MMS 3,2015-011C,2024-08-15T14:00:01.000224,0.28440063,.9058489,51.2868,7.3918,149.7757,80.4029,0,U,40484,999,1552,0,-.2415E-4,0
