40298,ASNARO,2014,94.76,500.0,+,97.41,Active,1,LEO,Russia,Japan,Government,Earth Observation,Dnepr,1 40298U 14070A   24226.83467780  .00030011  00000+0  14074-2 0  9996,2 40298  97.4086 307.3186 0000697  17.0260 343.0998 15.19618389541901,15.19618389,6.97e-05,LEO
40299,HODOYOSHI-1,2014,92.77,-1.0,+,97.14,Active,0,LEO,Russia,Japan,Unknown,Unknown,Unknown,1 40299U 14070B   24226.83237341  .00054667  00000+0  89735-3 0  9995,2 40299  97.1352 286.3861 0007815 178.7271 181.4004 15.52218863544036,15.52218863,0.0007815,LEO
40305,YAOGAN-23,2014,92.48,-1.0,+,97.69,Active,1,LEO,PRC,China,Military,Earth Observation,Long March,1 40305U 14071A   24226.82083597  .00087667  00000+0  12014-2 0  9996,2 40305  97.6900 216.0056 0004559 125.4302 234.7378 15.57070186541302,15.57070186,0.0004559,LEO
40310,YAOGAN-24,2014,97.55,-1.0,+,98.06,Active,1,LEO,PRC,China,Military,Earth Observation,Long March,1 40310U 14072A   24226.80838832  .00004121  00000+0  60322-3 0  9991,2 40310  98.0613 351.2092 0011886 253.6683 106.3220 14.76147428524544,14.76147428,0.0011886,LEO
40315,COSMOS 2501 [GLONASS-K],2014,675.73,935.0,+,63.62,Active,1,MEO,Russia,Russia/USSR,Commercial/Military,Navigation (Global or Regional Positioning),Soyuz,1 40315U 14075A   24224.50574791  .00000096  00000+0  00000+0 0  9995,2 40315  63.6230 213.7523 0020992 211.5290 148.3545  2.13101532 75471,2.13101532,0.0020992,MEO
40333,DIRECTV 14,2014,1436.09,5900.0,+,0.01,Active,1,GSO,French Guiana,USA,Commercial,Communications,Ariane,1 40333U 14078B   24228.60811281 -.00000119  00000+0  00000+0 0  9998,2 40333   0.0122 333.4123 0000726  76.3446  34.4242  1.00271311 35333,1.00271311,7.26e-05,GEO
40336,CBERS 4,2014,100.31,1980.0,+,98.4,Active,1,LEO,PRC,China/Brazil,Government,Earth Observation,Long March,1 40336U 14079A   24226.83261592  .00000784  00000+0  28730-3 0  9990,2 40336  98.3966 293.6511 0001501 122.1197 238.0135 14.35495602507492,14.35495602,0.0001501,LEO
40338,YAOGAN-25 01A,2014,107.04,-1.0,+,63.39,Active,1,LEO,PRC,China,Military,Earth Observation,Long March,1 40338U 14080A   24226.82545840  .00000101  00000+0  24395-3 0  9990,2 40338  63.3907 242.1103 0306734   6.0828 354.3789 13.45292491475205,13.45292491,0.0306734,LEO
40339,YAOGAN-25 01B,2014,107.04,-1.0,+,63.39,Active,1,LEO,PRC,China,Military,Earth Observation,Long March,1 40339U 14080B   24226.82278881  .00000096  00000+0  23697-3 0  9996,2 40339  63.3915 242.2558 0307002   5.9507 354.5034 13.45310410475174,13.4531041,0.0307002,LEO
40340,YAOGAN-25 01C,2014,107.04,-1.0,+,63.39,Active,1,LEO,PRC,China,Military,Earth Observation,Long March,1 40340U 14080C   24226.82200655  .00000101  00000+0  24317-3 0  9999,2 40340  63.3897 242.6388 0306675   6.5560 353.9338 13.45313556475298,13.45313556,0.0306675,LEO
40345,YAMAL 401,2014,1436.07,2976.0,+,0.01,Active,1,GSO,Kazakhstan,Russia/USSR,Commercial,Communications,Proton,1 40345U 14082A   24226.87502236 -.00000219  00000+0  00000+0 0  9991,2 40345   0.0115 136.8271 0000785 156.2400  74.6622  1.00273528 35172,1.00273528,7.85e-05,GEO
40351,O3B FM9,2014,287.93,650.0,+,0.06,Active,1,MEO,French Guiana,O3b Networks,Commercial,Communications,Soyuz,1 40351U 14083D   24226.99407995 -.00000015  00000+0  00000+0 0  9992,2 40351   0.0589 358.8312 0002595 142.6843 218.5035  5.00116047176446,5.00116047,0.0002595,MEO
40358,COSMOS 2502,2014,103.03,5000.0,+,67.15,Active,1,LEO,Russia,Russia/USSR,Military,Earth Observation,Soyuz,1 40358U 14086A   24226.88980936  .00000269  00000+0  24367-3 0  9997,2 40358  67.1501 203.9187 0005527 288.7490  71.2995 13.97651223489990,13.97651223,0.0005527,LEO
40360,RESURS-P 2,2014,92.09,5900.0,P,97.15,Active,1,LEO,Kazakhstan,Russia/USSR,Commercial/Government,Earth Observation/Communications/Space Science,Soyuz,1 40360U 14087A   24226.87203754  .00049594  00000+0  53000-3 0  9996,2 40360  97.1487 313.9563 0006019  87.3756 272.8192 15.63742098540064,15.63742098,0.0006019,LEO
40362,YAOGAN-26,2014,94.5,-1.0,+,97.08,Active,1,LEO,PRC,China,Military,Earth Observation,Long March,1 40362U 14088A   24226.86781255  .00027366  00000+0  11376-2 0  9997,2 40362  97.0831 244.6867 0003545 218.3836 141.7150 15.23754054536087,15.23754054,0.0003545,LEO
40364,ASTRA 2G,2014,1436.03,6000.0,+,0.06,Active,1,GSO,Kazakhstan,SES,Commercial,Communications,Proton,1 40364U 14089A   24227.20049291  .00000160  00000+0  00000+0 0  9998,2 40364   0.0609 310.2730 0003561 146.9244 326.3041  1.00276571 35281,1.00276571,0.0003561,GEO
40367,FENGYUN 2G,2014,1436.16,1390.0,+,3.93,Active,1,GSO,PRC,China,Government,Earth Observation,Long March,1 40367U 14090A   24226.85098316 -.00000293  00000+0  00000+0 0  9993,2 40367   3.9327  80.8666 0003026 136.9843 150.7839  1.00267530 35257,1.0026753,0.0003026,GSO
40374,MUOS-3,2015,1436.11,6804.0,+,3.33,Active,1,GSO,USA,USA,Military,Communications,Atlas,1 40374U 15002A   24226.82471477 -.00000119  00000+0  00000+0 0  9992,2 40374   3.3264  36.3239 0058869 176.2415  31.5647  1.00271072 34841,1.00271072,0.0058869,GSO
40384,INMARSAT 5-F2,2015,1436.1,6105.0,+,0.02,Active,1,GSO,Kazakhstan,INMARSAT,Commercial,Communications,Proton,1 40384U 15005A   24226.96793777 -.00000275  00000+0  00000+0 0  9994,2 40384   0.0176 100.6926 0000152 158.9532 356.6872  1.00271687 34253,1.00271687,1.52e-05,GEO
40425,EUTELSAT 115 WEST B,2015,1436.08,-1.0,+,0.01,Active,1,GSO,USA,EUTELSAT,Commercial,Communications,Falcon,1 40425U 15010B   24228.59352885 -.00000019  00000+0  00000+0 0  9994,2 40425   0.0105 230.4535 0000368  34.1314 158.6485  1.00272942 34661,1.00272942,3.68e-05,GEO
40482,MMS 1,2015,5062.67,1360.0,+,51.28,Active,1,HEO,USA,USA,Government,Space Science,Atlas,1 40482U 15011A   24228.58334491 -.00002415  00000+0  00000+0 0  9992,2 40482  51.2847   7.3933 9058422 149.7749  81.0049  0.28443537  1305,0.28443537,0.9058422,HEO
40483,MMS 2,2015,5063.29,1360.0,+,51.28,Active,1,HEO,USA,USA,Government,Space Science,Atlas,1 40483U 15011B   24228.58334491 -.00002415  00000+0  00000+0 0  9993,2 40483  51.2857   7.3923 9058520 149.7755  80.2943  0.28439937  1361,0.28439937,0.905852,HEO
40484,MMS 3,2015,5063.26,1360.0,+,51.28,Active,1,HEO,USA,USA,Government,Space Science,Atlas,1 40484U 15011C   24228.58334491 -.00002415  00000+0  00000+0 0  9994,2 40484  51.2868   7.3918 9058489 149.7757  80.4029  0.28440063  1363,0.28440063,0.9058489,HEO
